{"type": "FeatureCollection", "features": [ {"type": "Feature", "properties": {"norad_id": 33153, "name": "INTELSAT 25 (IS-25)", "group": "intelsat", "lat": 2.1248479922014507, "lon": -172.54132923104257, "alt_km": 35780.33850695652, "timestamp": "2025-12-06T09:34:16.585431+00:00", "meta": {"OBJECT_NAME": "INTELSAT 25 (IS-25)", "OBJECT_ID": "2008-034A", "EPOCH": "2025-12-05T22:06:23.434848", "MEAN_MOTION": 1.00270838, "ECCENTRICITY": 0.00054471, "INCLINATION": 2.2092, "RA_OF_ASC_NODE": 82.7229, "ARG_OF_PERICENTER": 180.3411, "MEAN_ANOMALY": 112.0124, "EPHEMERIS_TYPE": 0, "CLASSIFICATION_TYPE": "U", "NORAD_CAT_ID": 33153, "ELEMENT_SET_NO": 999, "REV_AT_EPOCH": 6375, "BSTAR": 0, "MEAN_MOTION_DOT": -2.16e-06, "MEAN_MOTION_DDOT": 0}, "tle": {"line1": "1 33153U 08034A   25339.92110457 -.00000216  00000+0  00000+0 0  9999", "line2": "2 33153   2.2092  82.7229 0005447 180.3411 112.0124  1.00270838 63751"}}, "geometry": {"type": "Point", "coordinates": [-172.54132923104257, 2.1248479922014507]}}, {"type": "Feature", "properties": {"norad_id": 33376, "name": "GALAXY 19 (G-19)", "group": "intelsat", "lat": 0.02253197513469631, "lon": 121.97630616154545, "alt_km": 35798.14644897803, "timestamp": "2025-12-06T09:34:16.585443+00:00", "meta": {"OBJECT_NAME": "GALAXY 19 (G-19)", "OBJECT_ID": "2008-045A", "EPOCH": "2025-12-05T21:47:47.717088", "MEAN_MOTION": 1.00270685, "ECCENTRICITY": 0.00034355, "INCLINATION": 0.019, "RA_OF_ASC_NODE": 54.9924, "ARG_OF_PERICENTER": 210.8724, "MEAN_ANOMALY": 39.0453, "EPHEMERIS_TYPE": 0, "CLASSIFICATION_TYPE": "U", "NORAD_CAT_ID": 33376, "ELEMENT_SET_NO": 999, "REV_AT_EPOCH": 6296, "BSTAR": 0, "MEAN_MOTION_DOT": -1.3e-06, "MEAN_MOTION_DDOT": 0}, "tle": {"line1": "1 33376U 08045A   25339.90819117 -.00000130  00000+0  00000+0 0  9990", "line2": "2 33376   0.0190  54.9924 0003435 210.8724  39.0453  1.00270685 62962"}}, "geometry": {"type": "Point", "coordinates": [121.97630616154545, 0.02253197513469631]}}, {"type": "Feature", "properties": {"norad_id": 35493, "name": "FM-5", "group": "intelsat", "lat": -0.0027062209099791867, "lon": 132.83816499924023, "alt_km": 35784.81030149378, "timestamp": "2025-12-06T09:34:16.585454+00:00", "meta": {"OBJECT_NAME": "FM-5", "OBJECT_ID": "2009-034A", "EPOCH": "2025-12-05T21:50:47.429952", "MEAN_MOTION": 1.00270718, "ECCENTRICITY": 6.699e-05, "INCLINATION": 0.0176, "RA_OF_ASC_NODE": 290.3088, "ARG_OF_PERICENTER": 257.4764, "MEAN_ANOMALY": 128.7206, "EPHEMERIS_TYPE": 0, "CLASSIFICATION_TYPE": "U", "NORAD_CAT_ID": 35493, "ELEMENT_SET_NO": 999, "REV_AT_EPOCH": 4470, "BSTAR": 0, "MEAN_MOTION_DOT": -1.91e-06, "MEAN_MOTION_DDOT": 0}, "tle": {"line1": "1 35493U 09034A   25339.91027118 -.00000191  00000+0  00000+0 0  9991", "line2": "2 35493   0.0176 290.3088 0000669 257.4764 128.7206  1.00270718 44703"}}, "geometry": {"type": "Point", "coordinates": [132.83816499924023, -0.0027062209099791867]}}, {"type": "Feature", "properties": {"norad_id": 36097, "name": "INTELSAT 14 (IS-14)", "group": "intelsat", "lat": -0.014515616697458579, "lon": 173.97491457166151, "alt_km": 35785.07182281657, "timestamp": "2025-12-06T09:34:16.585466+00:00", "meta": {"OBJECT_NAME": "INTELSAT 14 (IS-14)", "OBJECT_ID": "2009-064A", "EPOCH": "2025-12-05T22:02:31.305696", "MEAN_MOTION": 1.00271287, "ECCENTRICITY": 0.00027334, "INCLINATION": 0.01, "RA_OF_ASC_NODE": 327.0011, "ARG_OF_PERICENTER": 291.0366, "MEAN_ANOMALY": 102.5698, "EPHEMERIS_TYPE": 0, "CLASSIFICATION_TYPE": "U", "NORAD_CAT_ID": 36097, "ELEMENT_SET_NO": 999, "REV_AT_EPOCH": 5866, "BSTAR": 0, "MEAN_MOTION_DOT": -2.64e-06, "MEAN_MOTION_DDOT": 0}, "tle": {"line1": "1 36097U 09064A   25339.91841789 -.00000264  00000+0  00000+0 0  9994", "line2": "2 36097   0.0100 327.0011 0002733 291.0366 102.5698  1.00271287 58668"}}, "geometry": {"type": "Point", "coordinates": [173.97491457166151, -0.014515616697458579]}}, {"type": "Feature", "properties": {"norad_id": 36106, "name": "INTELSAT 15 (IS-15)", "group": "intelsat", "lat": -0.015300507132705018, "lon": -55.82546361496304, "alt_km": 35779.14109998423, "timestamp": "2025-12-06T09:34:16.585478+00:00", "meta": {"OBJECT_NAME": "INTELSAT 15 (IS-15)", "OBJECT_ID": "2009-067A", "EPOCH": "2025-12-05T22:31:38.798400", "MEAN_MOTION": 1.00270462, "ECCENTRICITY": 0.00025054, "INCLINATION": 0.0132, "RA_OF_ASC_NODE": 323.6959, "ARG_OF_PERICENTER": 294.2301, "MEAN_ANOMALY": 240.1314, "EPHEMERIS_TYPE": 0, "CLASSIFICATION_TYPE": "U", "NORAD_CAT_ID": 36106, "ELEMENT_SET_NO": 999, "REV_AT_EPOCH": 3929, "BSTAR": 0, "MEAN_MOTION_DOT": -1.76e-06, "MEAN_MOTION_DDOT": 0}, "tle": {"line1": "1 36106U 09067A   25339.93864350 -.00000176  00000+0  00000+0 0  9991", "line2": "2 36106   0.0132 323.6959 0002505 294.2301 240.1314  1.00270462 39294"}}, "geometry": {"type": "Point", "coordinates": [-55.82546361496304, -0.015300507132705018]}}, {"type": "Feature", "properties": {"norad_id": 36131, "name": "DIRECTV 12", "group": "intelsat", "lat": 0.022570611764943394, "lon": 116.26187012816888, "alt_km": 35787.523182993405, "timestamp": "2025-12-06T09:34:16.585489+00:00", "meta": {"OBJECT_NAME": "DIRECTV 12", "OBJECT_ID": "2009-075A", "EPOCH": "2025-12-05T21:46:02.883648", "MEAN_MOTION": 1.00268748, "ECCENTRICITY": 1.747e-05, "INCLINATION": 0.0511, "RA_OF_ASC_NODE": 135.6854, "ARG_OF_PERICENTER": 197.3561, "MEAN_ANOMALY": 325.695, "EPHEMERIS_TYPE": 0, "CLASSIFICATION_TYPE": "U", "NORAD_CAT_ID": 36131, "ELEMENT_SET_NO": 999, "REV_AT_EPOCH": 4461, "BSTAR": 0, "MEAN_MOTION_DOT": -9.4e-07, "MEAN_MOTION_DDOT": 0}, "tle": {"line1": "1 36131U 09075A   25339.90697782 -.00000094  00000+0  00000+0 0  9997", "line2": "2 36131   0.0511 135.6854 0000174 197.3561 325.6950  1.00268748 44610"}}, "geometry": {"type": "Point", "coordinates": [116.26187012816888, 0.022570611764943394]}}, {"type": "Feature", "properties": {"norad_id": 36397, "name": "INTELSAT 16 (IS-16)", "group": "intelsat", "lat": 0.0007807089518238018, "lon": 142.77451456374973, "alt_km": 35790.469134386694, "timestamp": "2025-12-06T09:34:16.585501+00:00", "meta": {"OBJECT_NAME": "INTELSAT 16 (IS-16)", "OBJECT_ID": "2010-006A", "EPOCH": "2025-12-05T21:53:39.655392", "MEAN_MOTION": 1.00271359, "ECCENTRICITY": 0.00023758, "INCLINATION": 0.0101, "RA_OF_ASC_NODE": 316.8928, "ARG_OF_PERICENTER": 300.703, "MEAN_ANOMALY": 69.5834, "EPHEMERIS_TYPE": 0, "CLASSIFICATION_TYPE": "U", "NORAD_CAT_ID": 36397, "ELEMENT_SET_NO": 999, "REV_AT_EPOCH": 5771, "BSTAR": 0, "MEAN_MOTION_DOT": -2.35e-06, "MEAN_MOTION_DDOT": 0}, "tle": {"line1": "1 36397U 10006A   25339.91226453 -.00000235  00000+0  00000+0 0  9998", "line2": "2 36397   0.0101 316.8928 0002375 300.7030  69.5834  1.00271359 57712"}}, "geometry": {"type": "Point", "coordinates": [142.77451456374973, 0.0007807089518238018]}}, {"type": "Feature", "properties": {"norad_id": 37185, "name": "XM-5", "group": "intelsat", "lat": 0.005253186382935508, "lon": 103.78077126841912, "alt_km": 35783.845527596284, "timestamp": "2025-12-06T09:34:16.585513+00:00", "meta": {"OBJECT_NAME": "XM-5", "OBJECT_ID": "2010-053A", "EPOCH": "2025-12-05T21:42:40.706784", "MEAN_MOTION": 1.00267095, "ECCENTRICITY": 0.00016947, "INCLINATION": 0.0612, "RA_OF_ASC_NODE": 273.0724, "ARG_OF_PERICENTER": 250.8674, "MEAN_ANOMALY": 121.4919, "EPHEMERIS_TYPE": 0, "CLASSIFICATION_TYPE": "U", "NORAD_CAT_ID": 37185, "ELEMENT_SET_NO": 999, "REV_AT_EPOCH": 5554, "BSTAR": 0, "MEAN_MOTION_DOT": -1.3e-07, "MEAN_MOTION_DDOT": 0}, "tle": {"line1": "1 37185U 10053A   25339.90463781 -.00000013  00000+0  00000+0 0  9996", "line2": "2 37185   0.0612 273.0724 0001694 250.8674 121.4919  1.00267095 55548"}}, "geometry": {"type": "Point", "coordinates": [103.78077126841912, 0.005253186382935508]}}, {"type": "Feature", "properties": {"norad_id": 37238, "name": "INTELSAT 17 (IS-17)", "group": "intelsat", "lat": -0.014901038186604095, "lon": -74.98759538021586, "alt_km": 35777.33670382972, "timestamp": "2025-12-06T09:34:16.585524+00:00", "meta": {"OBJECT_NAME": "INTELSAT 17 (IS-17)", "OBJECT_ID": "2010-065B", "EPOCH": "2025-12-05T21:34:38.508384", "MEAN_MOTION": 1.00271589, "ECCENTRICITY": 0.00024632, "INCLINATION": 0.0102, "RA_OF_ASC_NODE": 297.9189, "ARG_OF_PERICENTER": 314.2971, "MEAN_ANOMALY": 212.3925, "EPHEMERIS_TYPE": 0, "CLASSIFICATION_TYPE": "U", "NORAD_CAT_ID": 37238, "ELEMENT_SET_NO": 999, "REV_AT_EPOCH": 5131, "BSTAR": 0, "MEAN_MOTION_DOT": 8e-08, "MEAN_MOTION_DDOT": 0}, "tle": {"line1": "1 37238U 10065B   25339.89905681  .00000008  00000+0  00000+0 0  9999", "line2": "2 37238   0.0102 297.9189 0002463 314.2971 212.3925  1.00271589 51312"}}, "geometry": {"type": "Point", "coordinates": [-74.98759538021586, -0.014901038186604095]}}, {"type": "Feature", "properties": {"norad_id": 37392, "name": "INTELSAT 28 (IS-28)", "group": "intelsat", "lat": 1.2643917550429202, "lon": -172.75052320810153, "alt_km": 35781.35099282941, "timestamp": "2025-12-06T09:34:16.585536+00:00", "meta": {"OBJECT_NAME": "INTELSAT 28 (IS-28)", "OBJECT_ID": "2011-016A", "EPOCH": "2025-12-05T22:06:23.434848", "MEAN_MOTION": 1.00270692, "ECCENTRICITY": 0.00041694, "INCLINATION": 1.306, "RA_OF_ASC_NODE": 85.1394, "ARG_OF_PERICENTER": 176.0351, "MEAN_ANOMALY": 113.6875, "EPHEMERIS_TYPE": 0, "CLASSIFICATION_TYPE": "U", "NORAD_CAT_ID": 37392, "ELEMENT_SET_NO": 999, "REV_AT_EPOCH": 5134, "BSTAR": 0, "MEAN_MOTION_DOT": -2.16e-06, "MEAN_MOTION_DDOT": 0}, "tle": {"line1": "1 37392U 11016A   25339.92110457 -.00000216  00000+0  00000+0 0  9992", "line2": "2 37392   1.3060  85.1394 0004169 176.0351 113.6875  1.00270692 51340"}}, "geometry": {"type": "Point", "coordinates": [-172.75052320810153, 1.2643917550429202]}}]}